ESTCUBE 1               
1 39161U 13021C   21364.45423888  .00000731  00000-0  12253-3 0  9992
2 39161  97.9245  81.0073 0008313 241.1562 118.8814 14.72623184464590
FENGYUN 3C              
1 39260U 13052A   21364.44918259  .00000048  00000-0  45323-4 0  9992
2 39260  98.4759  35.9467 0011927  46.0962 314.1198 14.15891812428006
CASSIOPE                
1 39265U 13055A   21364.47143948  .00007705  00000-0  20853-3 0  9995
2 39265  80.9672  85.9615 0639624  97.5314 269.8961 14.34721638428073
ZACUBE-1 (TSHEPISOSAT)  
1 39417U 13066B   21364.50547943  .00001078  00000-0  13949-3 0  9998
2 39417  97.6157 338.9354 0057067 237.7874 121.7799 14.81752815438103
CINEMA-3 (KHUSAT-2)     
1 39426U 13066L   21364.40167273  .00000682  00000-0  11280-3 0  9997
2 39426  97.7813 306.9103 0105150  57.7968 303.3382 14.69814700434437
TRITON-1                
1 39427U 13066M   21364.37226232  .00000864  00000-0  14313-3 0  9997
2 39427  97.7984 302.7521 0114358  85.0209 276.4040 14.68439668433960
DELFI-N3XT              
1 39428U 13066N   21364.36303772  .00001325  00000-0  21350-3 0  9994
2 39428  97.8014 301.2530 0120482  98.0229 263.4668 14.68327716433716
GOMX-1                  
1 39430U 13066Q   21364.37601463  .00000792  00000-0  15121-3 0  9992
2 39430  97.8158 276.2022 0149132 217.4061 141.6667 14.59795861431623
BRITE-PL1 (LEM)         
1 39431U 13066R   21364.60942744  .00000214  00000-0  55159-4 0  9994
2 39431  97.7215 228.0946 0202685  31.9961 329.3354 14.47206396427943
ICUBE-1                 
1 39432U 13066S   21364.52146526  .00001397  00000-0  14453-3 0  9994
2 39432  97.4689  12.1769 0033086 107.8779 252.6053 14.91183609439529
HUMSAT-D                
1 39433U 13066T   21364.61056063  .00001924  00000-0  18708-3 0  9994
2 39433  97.4583  19.5989 0031809  85.5398 274.9455 14.93300183440017
VELOX-PII               
1 39438U 13066Y   21364.45537417  .00001057  00000-0  14655-3 0  9992
2 39438  97.6694 329.7821 0068668 287.4071  71.9640 14.78416138436031
FIRST-MOVE              
1 39439U 13066Z   21364.38340132  .00002064  00000-0  25149-3 0  9990
2 39439  97.6187 340.7312 0062831 234.9227 124.6086 14.83058574436989
CUBEBUG-2 (LO-74)       
1 39440U 13066AA  21364.46251356  .00001374  00000-0  19495-3 0  9990
2 39440  97.7040 324.4357 0078692 320.5641  38.9857 14.76467166435347
NEE-02 KRYSAOR          
1 39441U 13066AB  21364.39707227  .00000988  00000-0  14563-3 0  9997
2 39441  97.7145 321.6370 0080626 333.2162  26.4895 14.75344055435105
FUNCUBE-1 (AO-73)       
1 39444U 13066AE  21364.50209224  .00001253  00000-0  15755-3 0  9997
2 39444  97.6049 341.3231 0056185 226.8147 132.8366 14.82706921436487
HINCUBE                 
1 39445U 13066AF  21364.46516365  .00001247  00000-0  15748-3 0  9995
2 39445  97.6063 341.1236 0056225 229.0051 130.6293 14.82530095436427
UWE-3                   
1 39446U 13066AG  21364.43689368  .00001197  00000-0  16289-3 0  9992
2 39446  97.6630 331.1227 0067939 280.7111  78.6457 14.79010654435479
AIST-1 (RS-41)          
1 39492U 13078C   21364.49693497  .00000600  00000-0  62372-4 0  9993
2 39492  82.4192  38.2473 0018686 309.9791  49.9780 14.88152113434652
SPROUT                  
1 39770U 14029E   21364.27003848  .00003597  00000-0  38722-3 0  9999
2 39770  97.9310 115.6199 0007439 286.5554  73.4847 14.89096567412473
UNISAT-6                
1 40012U 14033C   21364.49763994  .00000773  00000-0  12063-3 0  9997
2 40012  97.6616 196.5046 0057614 347.4256  12.5513 14.74487081405087
BUGSAT-1 (TITA)         
1 40014U 14033E   21364.55074695  .00000787  00000-0  75279-4 0  9993
2 40014  98.1319 351.2752 0029863 235.6755 124.1629 14.96020630410885
DUCHIFAT-1              
1 40021U 14033M   21364.49665426  .00001537  00000-0  15828-3 0  9999
2 40021  97.9936 307.0095 0011425 235.2176 124.7967 14.91762994409501
NANOSATC-BR1            
1 40024U 14033Q   21364.38292229  .00001950  00000-0  20398-3 0  9994
2 40024  97.9698 301.0948 0010728 242.3251 117.6878 14.90794181408781
QB50P1                  
1 40025U 14033R   21364.36867456  .00001568  00000-0  16952-3 0  9999
2 40025  97.9479 295.7119 0010926 252.7296 107.2726 14.89736614408582
DTUSAT-2                
1 40030U 14033W   21364.29757697  .00001414  00000-0  15523-3 0  9995
2 40030  97.9278 291.6025 0010401 249.0354 110.9750 14.89261071408463
QB50P2                  
1 40032U 14033Y   21364.60196093  .00001225  00000-0  13543-3 0  9999
2 40032  97.9284 291.9176 0010329 248.8369 111.1744 14.89224561408485
POLYITAN-1              
1 40042U 14033AJ  21364.50984339  .00001748  00000-0  18886-3 0  9992
2 40042  97.9578 296.8457 0013187 243.2056 116.7813 14.89605510408491
TIGRISAT                
1 40043U 14033AK  21364.49423520  .00000624  00000-0  98165-4 0  9992
2 40043  97.6573 197.8614 0059278 345.0436  14.9018 14.74673258404729
AISAT                   
1 40054U 14034B   21364.45820508  .00001869  00000-0  26157-3 0  9991
2 40054  98.3410 164.4215 0013511 133.4827 226.7508 14.78782592404496
CANX-4                  
1 40055U 14034C   21364.38831450  .00000524  00000-0  85608-4 0  9996
2 40055  98.3312 151.1030 0014378 171.3289 188.8170 14.75162488403799
CANX-5                  
1 40056U 14034D   21364.39411133  .00000520  00000-0  85016-4 0  9999
2 40056  98.3313 151.0921 0014395 171.5742 188.5711 14.75155634394606
VELOX-I                 
1 40057U 14034E   21364.41790908  .00001565  00000-0  22215-3 0  9994
2 40057  98.3467 165.4904 0011540 146.3324 213.8624 14.78454173404499
METEOR-M 2              
1 40069U 14037A   21364.50788949 -.00000013  00000-0  13326-4 0  9994
2 40069  98.4447  24.9138 0006890  92.4704 267.7265 14.20694208387877
DX1                     
1 40071U 14037C   21364.51278186  .00000550  00000-0  77447-4 0  9994
2 40071  98.4291 219.6222 0009205 133.1837 227.0140 14.81611990404322
UKUBE-1                 
1 40074U 14037F   21364.50235361  .00001436  00000-0  17624-3 0  9998
2 40074  98.4028 231.1598 0005122 106.1867 253.9918 14.84804556404994
FIREBIRD 3              
1 40377U 15003B   21364.48718823  .00011419  00000-0  39078-3 0  9993
2 40377  99.1123 187.3851 0111083 234.9613 124.1158 15.24688587382631
FIREBIRD 4              
1 40378U 15003C   21364.45611790  .00013857  00000-0  47208-3 0  9998
2 40378  99.1128 187.5234 0111113 234.8012 124.2777 15.24755757382632
GRIFEX                  
1 40379U 15003D   21364.47235894  .00008428  00000-0  32667-3 0  9999
2 40379  99.1138 175.1076 0123139 272.2471  86.4664 15.19661365381938
CP10 (EXOCUBE)          
1 40380U 15003E   21364.45311578  .00005620  00000-0  23293-3 0  9999
2 40380  99.1171 168.6792 0129431 293.8333  64.9372 15.17082553381511
DEORBITSAIL             
1 40719U 15032E   21364.19335972  .00001526  00000-0  21968-3 0  9990
2 40719  97.8036 243.0253 0015654 189.0696 171.0235 14.77682078348885
NUDT-PHONESAT           
1 40900U 15049B   21364.33195450  .00013206  00000-0  47248-3 0  9998
2 40900  97.4133  17.3547 0011549 158.3431 327.3395 15.28854815348727
XW-2A                   
1 40903U 15049E   21364.39779892  .00011681  00000-0  22781-3 0  9995
2 40903  97.2104  58.2272 0012407  26.6343 103.5570 15.47584245353079
XW-2C                   
1 40906U 15049H   21364.40234694  .00003692  00000-0  18778-3 0  9990
2 40906  97.4915   4.4376 0012973 222.4346 247.4741 15.17398550347271
XW-2D                   
1 40907U 15049J   21364.42184119  .00004001  00000-0  20090-3 0  9994
2 40907  97.4906   4.3295 0012406 218.1994 280.9900 15.17806865347310
LILACSAT-2              
1 40908U 15049K   21364.44627939  .00001858  00000-0  10342-3 0  9995
2 40908  97.5119   1.8988 0014059 239.5070 278.9132 15.14823564346895
XW-2E                   
1 40909U 15049L   21364.42755541  .00005831  00000-0  26843-3 0  9993
2 40909  97.4677   8.5896 0012131 198.9723 267.8591 15.20634370347707
XW-2F                   
1 40910U 15049M   21364.42962446  .00005758  00000-0  26895-3 0  9994
2 40910  97.4744   7.6916 0013149 200.2818 266.1796 15.20128394347487
XW-2B                   
1 40911U 15049N   21364.42978890  .00003826  00000-0  19276-3 0  9994
2 40911  97.4899   4.9860 0012333 219.2859 246.9065 15.17714379347201
KAITUO 1B               
1 40912U 15049P   21364.42189946  .00006550  00000-0  28240-3 0  9999
2 40912  97.4432  12.0609 0014003 168.7320 301.1973 15.22811674348006
TIANWANG 1A (TW-1A)     
1 40928U 15051D   21364.35911530  .00018122  00000-0  33064-3 0  9991
2 40928  97.0612  24.7761 0006828 302.6497 182.4053 15.49458011351989
LAPAN-A2                
1 40931U 15052B   21364.27242975  .00000984  00000-0  47794-4 0  9990
2 40931   6.0022 295.7775 0014038 296.1009  63.7767 14.76717303338294
LQSAT                   
1 40958U 15057A   21364.42736900  .00000231  00000-0  43154-4 0  9998
2 40958  97.7769  52.9868 0018845 141.7034 218.5518 14.73233211335106
ATHENOXAT 1             
1 41168U 15077C   21363.98019547  .00008760  00000-0  39313-3 0  9991
2 41168  14.9871 262.2910 0010848  18.3511  84.3282 15.17078449334502
GALASSIA                
1 41170U 15077E   21363.00544024  .00007859  00000-0  34864-3 0  9994
2 41170  14.9887 259.8306 0011516  39.5528 320.5633 15.17119561334279
VELOX-II                
1 41171U 15077F   21364.11786320  .00005532  00000-0  26308-3 0  9995
2 41171  14.9926 316.9961 0008482 269.7786  90.1563 15.13426173333904
CHUBUSAT-2              
1 41338U 16012B   21364.49256288  .00001343  00000-0  96572-4 0  9993
2 41338  31.0042  19.1347 0013570 276.8410  83.0681 15.00764642322075
CHUBUSAT-3              
1 41339U 16012C   21364.43083456  .00001416  00000-0  10183-3 0  9997
2 41339  31.0127  16.5691 0013369 283.7279  76.1868 15.00893726322064
HORYU-4                 
1 41340U 16012D   21364.39108409  .00002441  00000-0  17380-3 0  9995
2 41340  31.0064 357.8400 0013581 318.9419  41.0195 15.02285165322279
